start=new Date('2023-05-13T00:00:00.000Z').valueOf();
sats=[{"REF_FRAME":"TEME","SEMIMAJOR_AXIS":"6941.137","BSTAR":"0.00011925000000","RA_OF_ASC_NODE":"14.2627","REV_AT_EPOCH":"3840","ARG_OF_PERICENTER":"84.9614","LAUNCH_DATE":"2022-08-31","PERIAPSIS":"560.244","INCLINATION":"97.6577","ELEMENT_SET_NO":"999","OBJECT_ID":"2022-105AP","MEAN_MOTION":"15.01263064","PERIOD":"95.919","SITE":"AFWTR","CENTER_NAME":"EARTH","TIME_SYSTEM":"UTC","MEAN_ANOMALY":"275.2064","OBJECT_TYPE":"PAYLOAD","OBJECT_NAME":"STARLINK-4626","APOAPSIS":"565.761","MEAN_MOTION_DOT":"0.00001473","EPHEMERIS_TYPE":"0","COUNTRY_CODE":"US","MEAN_ELEMENT_THEORY":"SGP4","TLE_LINE2":"2 53685  97.6577  14.2627 0003974  84.9614 275.2064 15.01263064 38406","CLASSIFICATION_TYPE":"U","NORAD_CAT_ID":"53685","RCS_SIZE":"LARGE","DECAY_DATE":null,"EPOCH":"2023-05-12T16:20:49.275168","MEAN_MOTION_DDOT":"0.0000000000000","FILE":"3906381","ECCENTRICITY":"0.00039740","GP_ID":"231709040","TLE_LINE1":"1 53685U 22105AP  23132.68112587  .00001473  00000-0  11925-3 0  9992"},{"EPHEMERIS_TYPE":"0","TLE_LINE2":"2 53686  97.6571  14.2592 0005070  76.0493 284.1295 15.01257067 38409","COUNTRY_CODE":"US","MEAN_ELEMENT_THEORY":"SGP4","CLASSIFICATION_TYPE":"U","RCS_SIZE":"LARGE","NORAD_CAT_ID":"53686","DECAY_DATE":null,"MEAN_MOTION_DDOT":"0.0000000000000","EPOCH":"2023-05-12T16:15:29.726496","FILE":"3906381","GP_ID":"231709786","ECCENTRICITY":"0.00050700","TLE_LINE1":"1 53686U 22105AQ  23132.67742739  .00000455  00000-0  40015-4 0  9992","SEMIMAJOR_AXIS":"6941.156","REF_FRAME":"TEME","RA_OF_ASC_NODE":"14.2592","BSTAR":"0.00004001500000","REV_AT_EPOCH":"3840","ARG_OF_PERICENTER":"76.0493","PERIAPSIS":"559.502","LAUNCH_DATE":"2022-08-31","ELEMENT_SET_NO":"999","INCLINATION":"97.6571","OBJECT_ID":"2022-105AQ","MEAN_MOTION":"15.01257067","CENTER_NAME":"EARTH","SITE":"AFWTR","PERIOD":"95.920","MEAN_ANOMALY":"284.1295","TIME_SYSTEM":"UTC","OBJECT_TYPE":"PAYLOAD","OBJECT_NAME":"STARLINK-4467","MEAN_MOTION_DOT":"0.00000455","APOAPSIS":"566.540"},{"EPHEMERIS_TYPE":"0","CLASSIFICATION_TYPE":"U","TLE_LINE2":"2 53687  97.6569  14.2608 0004280  77.0577 283.1125 15.01258965 38400","COUNTRY_CODE":"US","MEAN_ELEMENT_THEORY":"SGP4","RCS_SIZE":"LARGE","NORAD_CAT_ID":"53687","DECAY_DATE":null,"EPOCH":"2023-05-12T16:18:09.533664","MEAN_MOTION_DDOT":"0.0000000000000","GP_ID":"231710038","ECCENTRICITY":"0.00042800","FILE":"3906381","TLE_LINE1":"1 53687U 22105AR  23132.67927701  .00000600  00000-0  51344-4 0  9996","SEMIMAJOR_AXIS":"6941.150","REF_FRAME":"TEME","BSTAR":"0.00005134400000","RA_OF_ASC_NODE":"14.2608","PERIAPSIS":"560.044","LAUNCH_DATE":"2022-08-31","REV_AT_EPOCH":"3840","ARG_OF_PERICENTER":"77.0577","OBJECT_ID":"2022-105AR","INCLINATION":"97.6569","ELEMENT_SET_NO":"999","MEAN_MOTION":"15.01258965","MEAN_ANOMALY":"283.1125","TIME_SYSTEM":"UTC","SITE":"AFWTR","CENTER_NAME":"EARTH","PERIOD":"95.919","OBJECT_TYPE":"PAYLOAD","MEAN_MOTION_DOT":"0.00000600","APOAPSIS":"565.986","OBJECT_NAME":"STARLINK-4569"},{"EPHEMERIS_TYPE":"0","CLASSIFICATION_TYPE":"U","TLE_LINE2":"2 53688  97.6554  14.2536 0005347  77.5503 282.6319 15.01258975 38404","MEAN_ELEMENT_THEORY":"SGP4","COUNTRY_CODE":"US","RCS_SIZE":"LARGE","NORAD_CAT_ID":"53688","DECAY_DATE":null,"MEAN_MOTION_DDOT":"0.0000000000000","EPOCH":"2023-05-12T16:10:09.809760","GP_ID":"231709290","ECCENTRICITY":"0.00053470","FILE":"3906381","TLE_LINE1":"1 53688U 22105AS  23132.67372465  .00000236  00000-0  22972-4 0  9998","REF_FRAME":"TEME","SEMIMAJOR_AXIS":"6941.150","RA_OF_ASC_NODE":"14.2536","BSTAR":"0.00002297200000","PERIAPSIS":"559.304","LAUNCH_DATE":"2022-08-31","REV_AT_EPOCH":"3840","ARG_OF_PERICENTER":"77.5503","OBJECT_ID":"2022-105AS","INCLINATION":"97.6554","ELEMENT_SET_NO":"999","MEAN_MOTION":"15.01258975","MEAN_ANOMALY":"282.6319","TIME_SYSTEM":"UTC","CENTER_NAME":"EARTH","SITE":"AFWTR","PERIOD":"95.919","OBJECT_TYPE":"PAYLOAD","MEAN_MOTION_DOT":"0.00000236","APOAPSIS":"566.726","OBJECT_NAME":"STARLINK-4571"},{"MEAN_MOTION":"15.01258807","MEAN_ANOMALY":"260.9003","TIME_SYSTEM":"UTC","SITE":"AFWTR","CENTER_NAME":"EARTH","PERIOD":"95.920","OBJECT_TYPE":"PAYLOAD","MEAN_MOTION_DOT":"0.00000266","APOAPSIS":"564.670","OBJECT_NAME":"STARLINK-4562","SEMIMAJOR_AXIS":"6941.151","REF_FRAME":"TEME","RA_OF_ASC_NODE":"14.2604","BSTAR":"0.00002527300000","PERIAPSIS":"561.361","LAUNCH_DATE":"2022-08-31","ARG_OF_PERICENTER":"99.2491","REV_AT_EPOCH":"3840","OBJECT_ID":"2022-105AT","INCLINATION":"97.6565","ELEMENT_SET_NO":"999","DECAY_DATE":null,"EPOCH":"2023-05-12T16:10:30.450720","MEAN_MOTION_DDOT":"0.0000000000000","GP_ID":"231709539","ECCENTRICITY":"0.00023830","FILE":"3906381","TLE_LINE1":"1 53689U 22105AT  23132.67396355  .00000266  00000-0  25273-4 0  9993","EPHEMERIS_TYPE":"0","CLASSIFICATION_TYPE":"U","TLE_LINE2":"2 53689  97.6565  14.2604 0002383  99.2491 260.9003 15.01258807 38400","COUNTRY_CODE":"US","MEAN_ELEMENT_THEORY":"SGP4","RCS_SIZE":"LARGE","NORAD_CAT_ID":"53689"},{"ELEMENT_SET_NO":"999","INCLINATION":"97.6550","OBJECT_ID":"2022-105AU","REV_AT_EPOCH":"3840","ARG_OF_PERICENTER":"69.0596","PERIAPSIS":"559.068","LAUNCH_DATE":"2022-08-31","RA_OF_ASC_NODE":"14.2506","BSTAR":"0.00004973300000","SEMIMAJOR_AXIS":"6941.170","REF_FRAME":"TEME","OBJECT_NAME":"STARLINK-4570","MEAN_MOTION_DOT":"0.00000580","APOAPSIS":"567.001","OBJECT_TYPE":"PAYLOAD","SITE":"AFWTR","CENTER_NAME":"EARTH","PERIOD":"95.920","TIME_SYSTEM":"UTC","MEAN_ANOMALY":"291.1239","MEAN_MOTION":"15.01252635","RCS_SIZE":"LARGE","NORAD_CAT_ID":"53690","TLE_LINE2":"2 53690  97.6550  14.2506 0005714  69.0596 291.1239 15.01252635 38409","COUNTRY_CODE":"US","MEAN_ELEMENT_THEORY":"SGP4","CLASSIFICATION_TYPE":"U","EPHEMERIS_TYPE":"0","TLE_LINE1":"1 53690U 22105AU  23132.67187641  .00000580  00000-0  49733-4 0  9997","FILE":"3906381","GP_ID":"231710286","ECCENTRICITY":"0.00057140","DECAY_DATE":null,"MEAN_MOTION_DDOT":"0.0000000000000","EPOCH":"2023-05-12T16:07:30.121824"},{"NORAD_CAT_ID":"53691","RCS_SIZE":"LARGE","CLASSIFICATION_TYPE":"U","COUNTRY_CODE":"US","MEAN_ELEMENT_THEORY":"SGP4","TLE_LINE2":"2 53691  97.6561  14.2497 0002501  94.5388 265.6122 15.01263191 38400","EPHEMERIS_TYPE":"0","TLE_LINE1":"1 53691U 22105AV  23132.67556735  .00001272  00000-0  10361-3 0  9995","ECCENTRICITY":"0.00025010","GP_ID":"231710538","FILE":"3906381","EPOCH":"2023-05-12T16:12:49.019040","DECAY_DATE":null,"MEAN_MOTION_DDOT":"0.0000000000000","OBJECT_ID":"2022-105AV","ELEMENT_SET_NO":"999","INCLINATION":"97.6561","LAUNCH_DATE":"2022-08-31","PERIAPSIS":"561.266","REV_AT_EPOCH":"3840","ARG_OF_PERICENTER":"94.5388","RA_OF_ASC_NODE":"14.2497","BSTAR":"0.00010361000000","REF_FRAME":"TEME","SEMIMAJOR_AXIS":"6941.137","APOAPSIS":"564.738","MEAN_MOTION_DOT":"0.00001272","OBJECT_NAME":"STARLINK-4560","OBJECT_TYPE":"PAYLOAD","TIME_SYSTEM":"UTC","MEAN_ANOMALY":"265.6122","PERIOD":"95.919","SITE":"AFWTR","CENTER_NAME":"EARTH","MEAN_MOTION":"15.01263191"},{"EPHEMERIS_TYPE":"0","NORAD_CAT_ID":"53692","RCS_SIZE":"LARGE","MEAN_ELEMENT_THEORY":"SGP4","COUNTRY_CODE":"US","TLE_LINE2":"2 53692  97.6554  14.2470 0005256  60.3108 299.8639 15.01255328 38400","CLASSIFICATION_TYPE":"U","EPOCH":"2023-05-12T16:04:49.788480","DECAY_DATE":null,"MEAN_MOTION_DDOT":"0.0000000000000","TLE_LINE1":"1 53692U 22105AW  23132.67002070  .00001102  00000-0  90386-4 0  9992","FILE":"3906381","ECCENTRICITY":"0.00052560","GP_ID":"231708791","RA_OF_ASC_NODE":"14.2470","BSTAR":"0.00009038600000","SEMIMAJOR_AXIS":"6941.161","REF_FRAME":"TEME","INCLINATION":"97.6554","ELEMENT_SET_NO":"999","OBJECT_ID":"2022-105AW","ARG_OF_PERICENTER":"60.3108","REV_AT_EPOCH":"3840","LAUNCH_DATE":"2022-08-31","PERIAPSIS":"559.378","PERIOD":"95.920","SITE":"AFWTR","CENTER_NAME":"EARTH","TIME_SYSTEM":"UTC","MEAN_ANOMALY":"299.8639","MEAN_MOTION":"15.01255328","OBJECT_NAME":"STARLINK-4572","APOAPSIS":"566.675","MEAN_MOTION_DOT":"0.00001102","OBJECT_TYPE":"PAYLOAD"},{"DECAY_DATE":null,"EPOCH":"2023-05-12T16:02:09.608064","MEAN_MOTION_DDOT":"0.0000000000000","TLE_LINE1":"1 53693U 22105AX  23132.66816676  .00000316  00000-0  29214-4 0  9995","FILE":"3906381","ECCENTRICITY":"0.00048740","GP_ID":"231709041","EPHEMERIS_TYPE":"0","NORAD_CAT_ID":"53693","RCS_SIZE":"LARGE","MEAN_ELEMENT_THEORY":"SGP4","COUNTRY_CODE":"US","TLE_LINE2":"2 53693  97.6560  14.2417 0004874  53.8729 306.2946 15.01259424 38405","CLASSIFICATION_TYPE":"U","PERIOD":"95.919","CENTER_NAME":"EARTH","SITE":"AFWTR","MEAN_ANOMALY":"306.2946","TIME_SYSTEM":"UTC","MEAN_MOTION":"15.01259424","OBJECT_NAME":"STARLINK-4566","APOAPSIS":"566.397","MEAN_MOTION_DOT":"0.00000316","OBJECT_TYPE":"PAYLOAD","BSTAR":"0.00002921400000","RA_OF_ASC_NODE":"14.2417","SEMIMAJOR_AXIS":"6941.149","REF_FRAME":"TEME","INCLINATION":"97.6560","ELEMENT_SET_NO":"999","OBJECT_ID":"2022-105AX","ARG_OF_PERICENTER":"53.8729","REV_AT_EPOCH":"3840","LAUNCH_DATE":"2022-08-31","PERIAPSIS":"559.631"},{"APOAPSIS":"540.602","MEAN_MOTION_DOT":"0.00000129","OBJECT_NAME":"STARLINK-4725","OBJECT_TYPE":"PAYLOAD","MEAN_ANOMALY":"277.6810","TIME_SYSTEM":"UTC","PERIOD":"95.438","CENTER_NAME":"EARTH","SITE":"AFETR","MEAN_MOTION":"15.08830013","OBJECT_ID":"2022-107A","ELEMENT_SET_NO":"999","INCLINATION":"53.2168","LAUNCH_DATE":"2022-09-05","PERIAPSIS":"538.950","REV_AT_EPOCH":"3901","ARG_OF_PERICENTER":"82.4318","RA_OF_ASC_NODE":"198.0191","BSTAR":"0.00002617500000","REF_FRAME":"TEME","SEMIMAJOR_AXIS":"6917.911","TLE_LINE1":"1 53700U 22107A   23132.36818934  .00000129  00000-0  26175-4 0  9997","ECCENTRICITY":"0.00011940","GP_ID":"231709291","FILE":"3906381","DECAY_DATE":null,"EPOCH":"2023-05-12T08:50:11.558976","MEAN_MOTION_DDOT":"0.0000000000000","NORAD_CAT_ID":"53700","RCS_SIZE":"LARGE","CLASSIFICATION_TYPE":"U","MEAN_ELEMENT_THEORY":"SGP4","COUNTRY_CODE":"US","TLE_LINE2":"2 53700  53.2168 198.0191 0001194  82.4318 277.6810 15.08830013 39015","EPHEMERIS_TYPE":"0"}];
